{"type": "FeatureCollection", "features": [ {"type": "Feature", "properties": {"norad_id": 42969, "name": "SENTINEL-5P", "group": "resource", "lat": -75.17689518777763, "lon": -48.867574254685096, "alt_km": 834.9440907191074, "timestamp": "2025-12-02T17:49:11.683195+00:00", "meta": {"OBJECT_NAME": "SENTINEL-5P", "OBJECT_ID": "2017-064A", "EPOCH": "2025-12-02T09:43:42.960576", "MEAN_MOTION": 14.19513219, "ECCENTRICITY": 9.44e-05, "INCLINATION": 98.7768, "RA_OF_ASC_NODE": 275.0819, "ARG_OF_PERICENTER": 85.6517, "MEAN_ANOMALY": 274.4767, "EPHEMERIS_TYPE": 0, "CLASSIFICATION_TYPE": "U", "NORAD_CAT_ID": 42969, "ELEMENT_SET_NO": 999, "REV_AT_EPOCH": 42164, "BSTAR": 7.6421e-05, "MEAN_MOTION_DOT": 1.17e-06, "MEAN_MOTION_DDOT": 0}, "tle": {"line1": "1 42969U 17064A   25336.40535834  .00000117  00000+0  76421-4 0  9991", "line2": "2 42969  98.7768 275.0819 0000944  85.6517 274.4767 14.19513219421648"}}, "geometry": {"type": "Point", "coordinates": [-48.867574254685096, -75.17689518777763]}}, {"type": "Feature", "properties": {"norad_id": 42987, "name": "SKYSAT-C11", "group": "resource", "lat": 48.93371198574221, "lon": -57.41389275684931, "alt_km": 421.13244601116, "timestamp": "2025-12-02T17:49:11.683205+00:00", "meta": {"OBJECT_NAME": "SKYSAT-C11", "OBJECT_ID": "2017-068A", "EPOCH": "2025-12-02T07:56:32.315712", "MEAN_MOTION": 15.46785042, "ECCENTRICITY": 9.01e-05, "INCLINATION": 97.4132, "RA_OF_ASC_NODE": 113.5708, "ARG_OF_PERICENTER": 116.2054, "MEAN_ANOMALY": 243.9288, "EPHEMERIS_TYPE": 0, "CLASSIFICATION_TYPE": "U", "NORAD_CAT_ID": 42987, "ELEMENT_SET_NO": 999, "REV_AT_EPOCH": 45270, "BSTAR": 0.00052381, "MEAN_MOTION_DOT": 0.00026208, "MEAN_MOTION_DDOT": 0}, "tle": {"line1": "1 42987U 17068A   25336.33092958  .00026208  00000+0  52381-3 0  9999", "line2": "2 42987  97.4132 113.5708 0000901 116.2054 243.9288 15.46785042452708"}}, "geometry": {"type": "Point", "coordinates": [-57.41389275684931, 48.93371198574221]}}, {"type": "Feature", "properties": {"norad_id": 42988, "name": "SKYSAT-C10", "group": "resource", "lat": 36.753563682451095, "lon": 101.97886759581677, "alt_km": 467.07944321941704, "timestamp": "2025-12-02T17:49:11.683215+00:00", "meta": {"OBJECT_NAME": "SKYSAT-C10", "OBJECT_ID": "2017-068B", "EPOCH": "2025-12-02T08:15:09.326016", "MEAN_MOTION": 15.3195516, "ECCENTRICITY": 0.0005465, "INCLINATION": 97.425, "RA_OF_ASC_NODE": 107.1686, "ARG_OF_PERICENTER": 123.3148, "MEAN_ANOMALY": 236.8617, "EPHEMERIS_TYPE": 0, "CLASSIFICATION_TYPE": "U", "NORAD_CAT_ID": 42988, "ELEMENT_SET_NO": 999, "REV_AT_EPOCH": 45220, "BSTAR": 0.00044463, "MEAN_MOTION_DOT": 0.00013655, "MEAN_MOTION_DDOT": 0}, "tle": {"line1": "1 42988U 17068B   25336.34385794  .00013655  00000+0  44463-3 0  9998", "line2": "2 42988  97.4250 107.1686 0005465 123.3148 236.8617 15.31955160452203"}}, "geometry": {"type": "Point", "coordinates": [101.97886759581677, 36.753563682451095]}}, {"type": "Feature", "properties": {"norad_id": 42989, "name": "SKYSAT-C9", "group": "resource", "lat": 74.36040390157278, "lon": -45.34352262509254, "alt_km": 444.96032787726926, "timestamp": "2025-12-02T17:49:11.683225+00:00", "meta": {"OBJECT_NAME": "SKYSAT-C9", "OBJECT_ID": "2017-068C", "EPOCH": "2025-12-02T07:59:11.884416", "MEAN_MOTION": 15.35629577, "ECCENTRICITY": 0.0010632, "INCLINATION": 97.4179, "RA_OF_ASC_NODE": 106.5082, "ARG_OF_PERICENTER": 121.6479, "MEAN_ANOMALY": 238.5803, "EPHEMERIS_TYPE": 0, "CLASSIFICATION_TYPE": "U", "NORAD_CAT_ID": 42989, "ELEMENT_SET_NO": 999, "REV_AT_EPOCH": 45248, "BSTAR": 0.00047935, "MEAN_MOTION_DOT": 0.00016569, "MEAN_MOTION_DDOT": 0}, "tle": {"line1": "1 42989U 17068C   25336.33277644  .00016569  00000+0  47935-3 0  9996", "line2": "2 42989  97.4179 106.5082 0010632 121.6479 238.5803 15.35629577452487"}}, "geometry": {"type": "Point", "coordinates": [-45.34352262509254, 74.36040390157278]}}, {"type": "Feature", "properties": {"norad_id": 42990, "name": "SKYSAT-C8", "group": "resource", "lat": -6.189924642965808, "lon": -74.10870222113999, "alt_km": 473.46877648072586, "timestamp": "2025-12-02T17:49:11.683235+00:00", "meta": {"OBJECT_NAME": "SKYSAT-C8", "OBJECT_ID": "2017-068D", "EPOCH": "2025-12-02T07:36:29.906784", "MEAN_MOTION": 15.32559128, "ECCENTRICITY": 0.0002193, "INCLINATION": 97.4271, "RA_OF_ASC_NODE": 106.275, "ARG_OF_PERICENTER": 23.0676, "MEAN_ANOMALY": 337.0664, "EPHEMERIS_TYPE": 0, "CLASSIFICATION_TYPE": "U", "NORAD_CAT_ID": 42990, "ELEMENT_SET_NO": 999, "REV_AT_EPOCH": 45211, "BSTAR": 0.00046305, "MEAN_MOTION_DOT": 0.00014492, "MEAN_MOTION_DDOT": 0}, "tle": {"line1": "1 42990U 17068D   25336.31701281  .00014492  00000+0  46305-3 0  9998", "line2": "2 42990  97.4271 106.2750 0002193  23.0676 337.0664 15.32559128452119"}}, "geometry": {"type": "Point", "coordinates": [-74.10870222113999, -6.189924642965808]}}, {"type": "Feature", "properties": {"norad_id": 42991, "name": "SKYSAT-C7", "group": "resource", "lat": 61.82359124813676, "lon": 93.65473805938561, "alt_km": 459.04705852757525, "timestamp": "2025-12-02T17:49:11.683245+00:00", "meta": {"OBJECT_NAME": "SKYSAT-C7", "OBJECT_ID": "2017-068E", "EPOCH": "2025-12-02T08:08:29.512608", "MEAN_MOTION": 15.31968844, "ECCENTRICITY": 0.0007866, "INCLINATION": 97.4279, "RA_OF_ASC_NODE": 107.3469, "ARG_OF_PERICENTER": 89.4344, "MEAN_ANOMALY": 270.7799, "EPHEMERIS_TYPE": 0, "CLASSIFICATION_TYPE": "U", "NORAD_CAT_ID": 42991, "ELEMENT_SET_NO": 999, "REV_AT_EPOCH": 45218, "BSTAR": 0.00043643, "MEAN_MOTION_DOT": 0.00013413, "MEAN_MOTION_DDOT": 0}, "tle": {"line1": "1 42991U 17068E   25336.33923047  .00013413  00000+0  43643-3 0  9991", "line2": "2 42991  97.4279 107.3469 0007866  89.4344 270.7799 15.31968844452184"}}, "geometry": {"type": "Point", "coordinates": [93.65473805938561, 61.82359124813676]}}, {"type": "Feature", "properties": {"norad_id": 42992, "name": "SKYSAT-C6", "group": "resource", "lat": -29.448665739381276, "lon": -76.02827602432694, "alt_km": 478.9012313690573, "timestamp": "2025-12-02T17:49:11.683255+00:00", "meta": {"OBJECT_NAME": "SKYSAT-C6", "OBJECT_ID": "2017-068F", "EPOCH": "2025-12-02T09:03:55.560096", "MEAN_MOTION": 15.311499, "ECCENTRICITY": 0.0005136, "INCLINATION": 97.4313, "RA_OF_ASC_NODE": 107.8324, "ARG_OF_PERICENTER": 111.9945, "MEAN_ANOMALY": 248.1842, "EPHEMERIS_TYPE": 0, "CLASSIFICATION_TYPE": "U", "NORAD_CAT_ID": 42992, "ELEMENT_SET_NO": 999, "REV_AT_EPOCH": 45217, "BSTAR": 0.00045944, "MEAN_MOTION_DOT": 0.00013762, "MEAN_MOTION_DDOT": 0}, "tle": {"line1": "1 42992U 17068F   25336.37772639  .00013762  00000+0  45944-3 0  9998", "line2": "2 42992  97.4313 107.8324 0005136 111.9945 248.1842 15.31149900452176"}}, "geometry": {"type": "Point", "coordinates": [-76.02827602432694, -29.448665739381276]}}, {"type": "Feature", "properties": {"norad_id": 43111, "name": "CARTOSAT-2F", "group": "resource", "lat": 30.147654901844188, "lon": 30.19234166107537, "alt_km": 506.98737549132056, "timestamp": "2025-12-02T17:49:11.683267+00:00", "meta": {"OBJECT_NAME": "CARTOSAT-2F", "OBJECT_ID": "2018-004A", "EPOCH": "2025-12-01T21:08:16.196064", "MEAN_MOTION": 15.19324266, "ECCENTRICITY": 9.074e-05, "INCLINATION": 97.4331, "RA_OF_ASC_NODE": 33.6929, "ARG_OF_PERICENTER": 193.2914, "MEAN_ANOMALY": 166.8297, "EPHEMERIS_TYPE": 0, "CLASSIFICATION_TYPE": "U", "NORAD_CAT_ID": 43111, "ELEMENT_SET_NO": 999, "REV_AT_EPOCH": 43737, "BSTAR": 6.1441308e-05, "MEAN_MOTION_DOT": 1.23e-05, "MEAN_MOTION_DDOT": 0}, "tle": {"line1": "1 43111U 18004A   25335.88074301  .00001230  00000+0  61441-4 0  9997", "line2": "2 43111  97.4331  33.6929 0000907 193.2914 166.8297 15.19324266437378"}}, "geometry": {"type": "Point", "coordinates": [30.19234166107537, 30.147654901844188]}}, {"type": "Feature", "properties": {"norad_id": 43259, "name": "GAOFEN-1 02", "group": "resource", "lat": -71.87698242197538, "lon": -171.2044203946085, "alt_km": 646.9743912150243, "timestamp": "2025-12-02T17:49:11.683277+00:00", "meta": {"OBJECT_NAME": "GAOFEN-1 02", "OBJECT_ID": "2018-031A", "EPOCH": "2025-12-02T11:47:40.803936", "MEAN_MOTION": 14.76445262, "ECCENTRICITY": 0.0001278, "INCLINATION": 98.0821, "RA_OF_ASC_NODE": 34.2761, "ARG_OF_PERICENTER": 263.6328, "MEAN_ANOMALY": 96.4736, "EPHEMERIS_TYPE": 0, "CLASSIFICATION_TYPE": "U", "NORAD_CAT_ID": 43259, "ELEMENT_SET_NO": 999, "REV_AT_EPOCH": 41367, "BSTAR": 0.00020022, "MEAN_MOTION_DOT": 1.341e-05, "MEAN_MOTION_DDOT": 0}, "tle": {"line1": "1 43259U 18031A   25336.49144449  .00001341  00000+0  20022-3 0  9991", "line2": "2 43259  98.0821  34.2761 0001278 263.6328  96.4736 14.76445262413671"}}, "geometry": {"type": "Point", "coordinates": [-171.2044203946085, -71.87698242197538]}}, {"type": "Feature", "properties": {"norad_id": 43260, "name": "GAOFEN-1 03", "group": "resource", "lat": 10.043486481439206, "lon": 32.96353613172237, "alt_km": 640.4524919259911, "timestamp": "2025-12-02T17:49:11.683287+00:00", "meta": {"OBJECT_NAME": "GAOFEN-1 03", "OBJECT_ID": "2018-031B", "EPOCH": "2025-12-02T12:53:40.018272", "MEAN_MOTION": 14.76401888, "ECCENTRICITY": 0.0002687, "INCLINATION": 98.0813, "RA_OF_ASC_NODE": 34.2002, "ARG_OF_PERICENTER": 1.6022, "MEAN_ANOMALY": 358.5195, "EPHEMERIS_TYPE": 0, "CLASSIFICATION_TYPE": "U", "NORAD_CAT_ID": 43260, "ELEMENT_SET_NO": 999, "REV_AT_EPOCH": 41367, "BSTAR": 0.0002017, "MEAN_MOTION_DOT": 1.35e-05, "MEAN_MOTION_DDOT": 0}, "tle": {"line1": "1 43260U 18031B   25336.53726873  .00001350  00000+0  20170-3 0  9999", "line2": "2 43260  98.0813  34.2002 0002687   1.6022 358.5195 14.76401888413675"}}, "geometry": {"type": "Point", "coordinates": [32.96353613172237, 10.043486481439206]}}]}